O3B FM5                 
1 39188U 13031A   22198.26085847 -.00000025  00000+0  00000+0 0  9995
2 39188   0.0504  25.4961 0002573  91.3807 243.1455  5.00115224165457
O3B FM4                 
1 39189U 13031B   22196.91723992 -.00000024  00000+0  00000+0 0  9995
2 39189   0.0572 356.4778 0003510 169.0593 194.4693  4.99833275165400
O3B FM2                 
1 39190U 13031C   22198.38724566 -.00000025  00000+0  00000+0 0  9999
2 39190   0.0606 352.5996 0001140 104.9719 262.4374  4.99476738165537
O3B PFM                 
1 39191U 13031D   22198.43464858 -.00000025  00000+0  00000+0 0  9991
2 39191   0.0496  15.1823 0002658 100.7988 244.0423  5.00115683165097
O3B FM3                 
1 40079U 14038A   22198.28949510 -.00000025  00000+0  00000+0 0  9992
2 40079   0.0546   3.8659 0005070 111.6114 244.5712  5.00115323141466
O3B FM7                 
1 40080U 14038B   22198.43545754 -.00000025  00000+0  00000+0 0  9993
2 40080   0.0587   2.2409 0000895 140.1200 217.6413  5.00115417146303
O3B FM6                 
1 40081U 14038C   22198.06205048 -.00000025  00000+0  00000+0 0  9992
2 40081   0.0542   2.7941 0002695 113.7174 243.5121  5.00115358146226
O3B FM8                 
1 40082U 14038D   22197.91611845 -.00000025  00000+0  00000+0 0  9992
2 40082   0.0544 359.5036 0002710 113.8979 246.6230  5.00115588146342
O3B FM10                
1 40348U 14083A   22198.34189240 -.00000025  00000+0  00000+0 0  9994
2 40348   0.0474   9.7469 0002637 105.5829 244.6936  5.00115094138314
O3B FM11                
1 40349U 14083B   22198.35537832 -.00000025  00000+0  00000+0 0  9990
2 40349   0.0516  12.2599 0002180 116.4495 231.3061  5.00115328138332
O3B FM12                
1 40350U 14083C   22198.38257030 -.00000025  00000+0  00000+0 0  9994
2 40350   0.0514  11.2228 0002671 108.8568 239.9429  5.00115193138344
O3B FM9                 
1 40351U 14083D   22198.40952627 -.00000025  00000+0  00000+0 0  9992
2 40351   0.0524  13.1019 0002588 103.5860 243.3346  5.00115560138489
DIAMOND RED             
1 42783U 17036U   22198.38536419  .00008482  00000+0  31366-3 0  9995
2 42783  97.1970 238.1569 0009355 214.3775 145.6860 15.27897082281510
DIAMOND GREEN           
1 42785U 17036W   22198.05689918  .00006490  00000+0  24117-3 0  9997
2 42785  97.1973 237.9043 0009131 216.7315 143.3300 15.27833601281530
DIAMOND BLUE            
1 42786U 17036X   22198.38360245  .00009073  00000+0  33587-3 0  9994
2 42786  97.1972 238.2114 0009191 215.9793 144.0829 15.27844754281580
LEO VANTAGE 1           
1 43113U 18004C   22198.49525353  .00002918  00000+0  23652-3 0  9993
2 43113  99.2464 281.7170 0402319 101.0906 263.5795 14.53932791228609
O3B FM15                
1 43231U 18024A   22198.47549408 -.00000025  00000+0  00000+0 0  9997
2 43231   0.0442   8.0674 0002876 110.7915 241.1659  5.00115946 79440
O3B FM16                
1 43232U 18024B   22198.52886691 -.00000025  00000+0  00000+0 0  9992
2 43232   0.0401   7.0785 0002845 112.2378 240.7082  5.00115854 79368
O3B FM14                
1 43233U 18024C   22198.36853992 -.00000025  00000+0  00000+0 0  9993
2 43233   0.0389   5.6969 0002647 114.0585 240.2669  5.00115248 79376
O3B FM13                
1 43234U 18024D   22194.82289139 -.00000020  00000+0  00000+0 0  9992
2 43234   0.0470  41.8757 0101445 178.9270 138.4307  5.00126458 79317
O3B FM20                
1 44112U 19020A   22198.39527095 -.00000025  00000+0  00000+0 0  9992
2 44112   0.0475   8.9368 0002846 117.3981 233.6874  5.00115393 59996
O3B FM19                
1 44113U 19020B   22198.02223948 -.00000025  00000+0  00000+0 0  9993
2 44113   0.0499  34.0008 0002640  92.1302 233.8895  5.00115131 59842
O3B FM17                
1 44114U 19020C   22198.30270326 -.00000025  00000+0  00000+0 0  9997
2 44114   0.0454 344.5610 0002972 135.2258 240.2388  5.00115487 59943
O3B FM18                
1 44115U 19020D   22198.24924647 -.00000025  00000+0  00000+0 0  9993
2 44115   0.0476   9.4557 0002889 106.8913 243.6787  5.00115709 60066
SALSAT                  
1 46495U 20068K   22198.48990899  .00001883  00000+0  13816-3 0  9993
2 46495  97.7308 139.8037 0016710 168.9496 191.2100 15.04621308 98701
